SCD 1                   
1 22490U 93009B   26113.50147662  .00000376  00000+0  51782-4 0  9994
2 22490  24.9684 185.2214 0041683 279.3825 107.1764 14.46095078753198
TECHSAT 1B (GO-32)      
1 25397U 98043D   26113.48537428  .00000042  00000+0  38157-4 0  9997
2 25397  99.0062 104.8693 0001885  48.5143 311.6197 14.24417078443548
SCD 2                   
1 25504U 98060A   26113.50662172  .00000332  00000+0  41904-4 0  9990
2 25504  24.9961  49.3653 0016519 265.1323 260.8707 14.45504079452407
DLR-TUBSAT              
1 25757U 99029B   26112.90533015  .00000041  00000+0  21880-4 0  9990
2 25757  98.6692 106.5946 0014687 154.0397 206.1537 14.52411787425223
TERRA                   
1 25994U 99068A   26113.58918700  .00000260  00000+0  61881-4 0  9997
2 25994  97.9507 165.2878 0003311  61.4354  83.8557 14.61057925401636
MAROC-TUBSAT            
1 27004U 01056D   26113.03076204 -.00000030  00000+0  18925-4 0  9992
2 27004  99.8058 288.8544 0019057 284.8039 187.0548 13.70260048218633
AQUA                    
1 27424U 02022A   26113.51800152  .00000597  00000+0  12877-3 0  9998
2 27424  98.4241  81.7252 0001997  98.7796 354.8794 14.62068942275282
SHIYAN-1 (SY-1)         
1 28220U 04012A   26113.55089840  .00010688  00000+0  34498-3 0  9996
2 28220  97.8701 188.1304 0005614 198.6583 161.4453 15.32321397202722
AURA                    
1 28376U 04026A   26113.54972126  .00000592  00000+0  12979-3 0  9993
2 28376  98.3378  69.5680 0001683  86.5583 273.5810 14.61240622158236
IRS-P5 (CARTOSAT-1)     
1 28649U 05017A   26113.04653691  .00000838  00000+0  90325-4 0  9990
2 28649  97.5355 138.6069 0000859 126.7106 233.4192 14.90902398135607
SINAH 1                 
1 28893U 05043D   26113.51876645  .00000253  00000+0  57544-4 0  9995
2 28893  98.2774 247.5446 0015754  88.3286 271.9720 14.64118019 92529
RESURS-DK 1             
1 29228U 06021A   26113.42965717  .00001643  00000+0  98999-4 0  9997
2 29228  69.9297 121.2721 0003063 344.9718  15.1356 15.12973621 94293
ARIRANG-2 (KOMPSAT-2)   
1 29268U 06031A   26113.63662900  .00000272  00000+0  59623-4 0  9991
2 29268  97.8314 300.7215 0013030 244.8960 163.1332 14.64623941 53499
LAPAN-TUBSAT            
1 29709U 07001A   26113.57486784  .00000330  00000+0  44492-4 0  9999
2 29709  98.1354 111.5722 0012530  10.6827 349.4652 14.85892498 43045
HAIYANG-1B              
1 31113U 07010A   26113.46702677  .00000066  00000+0  40893-4 0  9998
2 31113  98.3475  97.4429 0013716   9.0909 351.0520 14.31012769992805
COSMO-SKYMED 1          
1 31598U 07023A   26113.59102278  .00001949  00000+0  17538-3 0  9994
2 31598  97.8870 304.9929 0001170 100.5515 259.5838 14.96825453 21627
TERRASAR-X              
1 31698U 07026A   26113.52105495  .00000376  00000+0  21078-4 0  9993
2 31698  97.4453 122.0056 0001693  87.9663 272.1765 15.19151657 44925
WORLDVIEW-1 (WV-1)      
1 32060U 07041A   26113.41402224  .00005004  00000+0  20785-3 0  9998
2 32060  97.3875 233.9249 0001580 210.1617 149.9530 15.24274364 34530
YAOGAN-3                
1 32289U 07055A   26113.62168955  .00001583  00000+0  16756-3 0  9990
2 32289  97.8202 144.0351 0001246  95.7783 264.3578 14.90566094997738
COSMO-SKYMED 2          
1 32376U 07059A   26113.61254808  .00000299  00000+0  44083-4 0  9991
2 32376  97.8885 298.0012 0001399  92.1566 267.9807 14.82156639993916
RADARSAT-2              
1 32382U 07061A   26113.60047743  .00000027  00000+0  27219-4 0  9999
2 32382  98.5804 121.3100 0001265  83.5922 276.5405 14.29981845958153
CARTOSAT-2A             
1 32783U 08021A   26113.59189898  .00000697  00000+0  10072-3 0  9998
2 32783  97.7681 164.1526 0010421 292.7505  67.2605 14.79169391970738
HUANJING 1A (HJ-1A)     
1 33320U 08041A   26113.61507887  .00000752  00000+0  96591-4 0  9996
2 33320  97.6675 101.5768 0018136 322.4145  37.5801 14.83858556950316
HUANJING 1B (HJ-1B)     
1 33321U 08041B   26113.62757521  .00000497  00000+0  66468-4 0  9996
2 33321  97.6517 104.9227 0036779   5.1615 354.9971 14.83214042950320
GEOEYE 1                
1 33331U 08042A   26113.50051915  .00000311  00000+0  67363-4 0  9999
2 33331  98.1251 188.1217 0003299 218.0919 142.0051 14.64672366942140
THEOS                   
1 33396U 08049A   26113.57682057  .00000387  00000+0  20131-3 0  9995
2 33396  98.5609 172.6221 0001282  93.0396 267.0928 14.20126012910213
COSMO-SKYMED 3          
1 33412U 08054A   26113.62178470  .00003647  00000+0  24988-3 0  9991
2 33412  97.8347 331.2808 0017081  91.3095 269.0089 15.06595017948725
YAOGAN-4                
1 33446U 08061A   26113.38512985  .00000725  00000+0  95579-4 0  9991
2 33446  97.9286  47.3120 0012878 247.3991 112.5861 14.83093955937540
GOSAT (IBUKI)           
1 33492U 09002A   26113.25176199  .00000494  00000+0  95516-4 0  9991
2 33492  98.0821 225.0398 0001221 108.5672 251.5666 14.67548505923409
DEIMOS-1                
1 35681U 09041A   26113.51671144  .00000181  00000+0  33801-4 0  9997
2 35681  97.7343 273.1337 0002196  50.1014 310.0389 14.75176571898826
DUBAISAT-1              
1 35682U 09041B   26113.34681063  .00000774  00000+0  12251-3 0  9993
2 35682  97.9965 247.2340 0009240 243.3704 116.6559 14.75018159897010
OCEANSAT-2              
1 35931U 09051A   26113.58410675 -.00000196  00000+0 -10857-3 0  9996
2 35931  98.2306 105.8965 0016229  32.5251 327.6912 13.99650746871694
WORLDVIEW-2 (WV-2)      
1 35946U 09055A   26113.53961791  .00000077  00000+0  39787-4 0  9991
2 35946  98.4694 187.7597 0004871  37.5149 322.6377 14.37927368867799
SMOS                    
1 36036U 09059A   26113.49591567  .00000144  00000+0  59741-4 0  9998
2 36036  98.4435 301.6295 0001186  92.8148 267.3176 14.39743198865580
YAOGAN-7                
1 36110U 09069A   26113.11558509  .00000336  00000+0  53741-4 0  9997
2 36110  98.0139 359.3045 0023748 214.3505 145.6171 14.77953475881493
TANDEM-X                
1 36605U 10030A   26113.52105482  .00000365  00000+0  20593-4 0  9990
2 36605  97.4459 122.0071 0001892  97.8560 262.2890 15.19151399878341
CARTOSAT-2B             
1 36795U 10035A   26113.59406580  .00000747  00000+0  10900-3 0  9999
2 36795  98.0000 164.4783 0011530  14.8045 345.3501 14.78661472851780
YAOGAN-10               
1 36834U 10038A   26113.66197176  .00001673  00000+0  20160-3 0  9990
2 36834  97.9026 137.4974 0001475  85.5609  54.4734 14.85178838849117
COSMO-SKYMED 4          
1 37216U 10060A   26113.62522595  .00000341  00000+0  49346-4 0  9992
2 37216  97.8890 298.0144 0001470  77.8649 282.2729 14.82159089836481
RESOURCESAT-2           
1 37387U 11015A   26113.54243900  .00000079  00000+0  56392-4 0  9990
2 37387  98.7671 181.3539 0012221  59.2387 300.9992 14.21598419778413
HAIYANG-2A              
1 37781U 11043A   26113.32322882 -.00000039  00000+0  46852-5 0  9990
2 37781  99.3417 117.1458 0006048 189.8882 170.2150 13.76076743739111
RASAT                   
1 37791U 11044D   26113.59541280  .00000587  00000+0  11037-3 0  9998
2 37791  98.0545 205.8336 0020860   9.4297 102.6139 14.68113935785175
SRMSAT                  
1 37841U 11058D   26113.07638752  .00000377  00000+0  60676-4 0  9994
2 37841  19.9732  33.0408 0011607 317.7671  73.3358 14.11562063750023
PLEIADES 1A             
1 38012U 11076F   26113.60151347  .00000408  00000+0  97612-4 0  9999
2 38012  98.1983 189.4328 0001109  78.3309  58.2695 14.58535935764033
ZIYUAN 1-02C (ZY 1-02C) 
1 38038U 11079A   26113.61530299  .00000563  00000+0  19973-3 0  9993
2 38038  98.4095 182.0578 0007659 107.8895  29.5432 14.38168682751369
ARIRANG-3 (KOMPSAT-3)   
1 38338U 12025B   26113.62944021  .00000319  00000+0  72555-4 0  9996
2 38338  98.1132  72.0470 0004088 292.7684  67.3085 14.62155672743371
EXACTVIEW-1 (ADS-1B)    
1 38709U 12039C   26113.26162125  .00000093  00000+0  59649-4 0  9998
2 38709  98.9699 229.4317 0010291 334.8968  25.1709 14.24967465714881
SPOT 6                  
1 38755U 12047A   26113.59051152  .00000509  00000+0  11937-3 0  9990
2 38755  98.2141 181.5300 0001246  83.7009 276.4332 14.58521508725092
PLEIADES 1B             
1 39019U 12068A   26113.60990084  .00000538  00000+0  12547-3 0  9995
2 39019  98.1953 189.4083 0001057  84.4122 275.7198 14.58562530712891
GOKTURK 2               
1 39030U 12073A   26113.62590596 -.00000156  00000+0 -16025-4 0  9994
2 39030  97.6858 313.7829 0001814 103.3525 256.7887 14.75486156716460
LANDSAT 8               
1 39084U 13008A   26113.50136614  .00000019  00000+0  14181-4 0  9993
2 39084  98.1855 184.4741 0001160  94.8058 265.3273 14.57103029689938
SARAL                   
1 39086U 13009A   26113.57272009  .00000054  00000+0  35807-4 0  9999
2 39086  98.5565 300.8294 0003013  88.0853 272.0676 14.32841935687787
GAOFEN-1                
1 39150U 13018A   26113.10361807  .00000766  00000+0  11681-3 0  9998
2 39150  97.9109 186.2839 0018661  84.0442 276.2895 14.76550617700116
VNREDSAT 1              
1 39160U 13021B   26113.58006044  .00000402  00000+0  83567-4 0  9994
2 39160  97.9124 169.0794 0001294  87.9342 272.2009 14.64948468692292
ARIRANG-5 (KOMPSAT-5)   
1 39227U 13042A   26113.62928281  .00001186  00000+0  89099-4 0  9998
2 39227  97.6218 301.0931 0002919   0.0726   0.0500 15.04497387695655
SKYSAT-A                
1 39418U 13066C   26113.02704195  .00002599  00000+0  15147-3 0  9997
2 39418  97.3867 164.1802 0022707 142.1240 218.1594 15.12645414680143
DUBAISAT-2              
1 39419U 13066D   26113.59823313  .00002555  00000+0  16200-3 0  9997
2 39419  97.4557 105.1959 0010051 214.2685 145.7897 15.09767562678156
GPM-CORE                
1 39574U 14009C   26113.51108905  .00004791  00000+0  10760-3 0  9991
2 39574  64.9710 131.3464 0012301 259.9243 100.0510 15.44617627689362
SENTINEL-1A             
1 39634U 14016A   26113.57895212  .00000158  00000+0  43310-4 0  9997
2 39634  98.1805 121.9057 0001424  83.0388 277.0974 14.59198907642050
